{
    "links": {
        "self": "http://www.neowsapp.com/rest/v1/neo/3789623?api_key=iIulBulltgU6a56xZRHN4H3l9WmuAYTsLGpBGhQ2"
    },
    "id": "3789623",
    "neo_reference_id": "3789623",
    "name": "(2017 WN13)",
    "designation": "2017 WN13",
    "nasa_jpl_url": "http://ssd.jpl.nasa.gov/sbdb.cgi?sstr=3789623",
    "absolute_magnitude_h": 22.7,
    "estimated_diameter": {
        "kilometers": {
            "estimated_diameter_min": 0.0766575574,
            "estimated_diameter_max": 0.1714115092
        },
        "meters": {
            "estimated_diameter_min": 76.6575573531,
            "estimated_diameter_max": 171.4115092306
        },
        "miles": {
            "estimated_diameter_min": 0.0476327831,
            "estimated_diameter_max": 0.1065101409
        },
        "feet": {
            "estimated_diameter_min": 251.5011804664,
            "estimated_diameter_max": 562.3737359442
        }
    },
    "is_potentially_hazardous_asteroid": false,
    "close_approach_data": [
        {
            "close_approach_date": "1914-03-15",
            "close_approach_date_full": "1914-Mar-15 15:14",
            "epoch_date_close_approach": -1760863560000,
            "relative_velocity": {
                "kilometers_per_second": "20.6194821494",
                "kilometers_per_hour": "74230.135737844",
                "miles_per_hour": "46123.7196199953"
            },
            "miss_distance": {
                "astronomical": "0.0523692808",
                "lunar": "20.3716502312",
                "kilometers": "7834332.861111896",
                "miles": "4868028.7064043248"
            },
            "orbiting_body": "Venus"
        },
        {
            "close_approach_date": "1978-04-15",
            "close_approach_date_full": "1978-Apr-15 15:47",
            "epoch_date_close_approach": 261503220000,
            "relative_velocity": {
                "kilometers_per_second": "13.1803495798",
                "kilometers_per_hour": "47449.2584872163",
                "miles_per_hour": "29483.123975015"
            },
            "miss_distance": {
                "astronomical": "0.2328236823",
                "lunar": "90.5684124147",
                "kilometers": "34829926.957636701",
                "miles": "21642313.0440844338"
            },
            "orbiting_body": "Earth"
        },
        {
            "close_approach_date": "2017-11-03",
            "close_approach_date_full": "2017-Nov-03 18:45",
            "epoch_date_close_approach": 1509734700000,
            "relative_velocity": {
                "kilometers_per_second": "20.6092586458",
                "kilometers_per_hour": "74193.3311247169",
                "miles_per_hour": "46100.8506646887"
            },
            "miss_distance": {
                "astronomical": "0.048351263",
                "lunar": "18.808641307",
                "kilometers": "7233245.95660981",
                "miles": "4494530.623282978"
            },
            "orbiting_body": "Earth"
        },
        {
            "close_approach_date": "2151-03-20",
            "close_approach_date_full": "2151-Mar-20 13:11",
            "epoch_date_close_approach": 5718604260000,
            "relative_velocity": {
                "kilometers_per_second": "30.7985393133",
                "kilometers_per_hour": "110874.7415279362",
                "miles_per_hour": "68893.2525899557"
            },
            "miss_distance": {
                "astronomical": "0.3579186488",
                "lunar": "139.2303543832",
                "kilometers": "53543867.493758056",
                "miles": "33270616.4816349328"
            },
            "orbiting_body": "Earth"
        }
    ],
    "orbital_data": {
        "orbit_id": "3",
        "orbit_determination_date": "2017-12-29 06:22:22",
        "first_observation_date": "2017-11-20",
        "last_observation_date": "2017-11-27",
        "data_arc_in_days": 7,
        "observations_used": 36,
        "orbit_uncertainty": "9",
        "minimum_orbit_intersection": ".00965562",
        "jupiter_tisserand_invariant": "4.653",
        "epoch_osculation": "2458079.5",
        "eccentricity": ".6084940748239704",
        "semi_major_axis": "1.35182625374111",
        "inclination": "6.501074615851861",
        "ascending_node_longitude": "198.1863135318559",
        "orbital_period": "574.0896824198359",
        "perihelion_distance": ".5292479881481593",
        "perihelion_argument": "99.27407970774199",
        "aphelion_distance": "2.174404519334061",
        "perihelion_time": "2458010.002180864816",
        "mean_anomaly": "43.58067328994342",
        "mean_motion": ".6270797246913931",
        "equinox": "J2000",
        "orbit_class": {
            "orbit_class_type": "APO",
            "orbit_class_description": "Near-Earth asteroid orbits which cross the Earth’s orbit similar to that of 1862 Apollo",
            "orbit_class_range": "a (semi-major axis) > 1.0 AU; q (perihelion) < 1.017 AU"
        }
    },
    "is_sentry_object": false
}